CTC2_L_00123001-01
1 10000U 24124BB  26075.70041667  .00000000  00000+0  00000-0 0  9994
2 10000  45.0000   0.0000 0000000   0.0000   0.0000 14.42576008    10
CTC2_L_00123001-02
1 10001U 24330A   26075.70041667  .00000000  00000+0  00000-0 0  9994
2 10001  45.0000   0.0000 0000000   0.0000  90.0000 14.42576008    10
CTC2_L_00123001-03
1 10002U 24340DB  26075.70041667  .00000000  00000+0  00000-0 0  9996
2 10002  45.0000   0.0000 0000000   0.0000 180.0000 14.42576008    11
CTC2_L_00123001-04
1 10003U 24654UI  26075.70041667  .00000000  00000+0  00000-0 0  9995
2 10003  45.0000   0.0000 0000000   0.0000 270.0000 14.42576008    12
CTC2_L_00123002-01
1 10004U 22471FH  26075.70041667  .00000000  00000+0  00000-0 0  9991
2 10004  45.0000  12.0000 0000000   0.0000  12.0000 14.42576008    10
CTC2_L_00123002-02
1 10005U 23484CN  26075.70041667  .00000000  00000+0  00000-0 0  9997
2 10005  45.0000  12.0000 0000000   0.0000 102.0000 14.42576008    11
CTC2_L_00123002-03
1 10006U 22128ST  26075.70041667  .00000000  00000+0  00000-0 0  9992
2 10006  45.0000  12.0000 0000000   0.0000 192.0000 14.42576008    11
CTC2_L_00123002-04
1 10007U 25036FB  26075.70041667  .00000000  00000+0  00000-0 0  9994
2 10007  45.0000  12.0000 0000000   0.0000 282.0000 14.42576008    12
CTC2_L_00123003-01
1 10008U 24213IK  26075.70041667  .00000000  00000+0  00000-0 0  9991
2 10008  45.0000  24.0000 0000000   0.0000  24.0000 14.42576008    10
CTC2_L_00123003-02
1 10009U 26157FT  26075.70041667  .00000000  00000+0  00000-0 0  9991
2 10009  45.0000  24.0000 0000000   0.0000 114.0000 14.42576008    11
CTC2_L_00123003-03
1 10010U 24416OH  26075.70041667  .00000000  00000+0  00000-0 0  9999
2 10010  45.0000  24.0000 0000000   0.0000 204.0000 14.42576008    13
CTC2_L_00123003-04
1 10011U 22750DH  26075.70041667  .00000000  00000+0  00000-0 0  9999
2 10011  45.0000  24.0000 0000000   0.0000 294.0000 14.42576008    13
CTC2_L_00123004-01
1 10012U 22204YO  26075.70041667  .00000000  00000+0  00000-0 0  9994
2 10012  45.0000  36.0000 0000000   0.0000  36.0000 14.42576008    11
CTC2_L_00123004-02
1 10013U 22678BZ  26075.70041667  .00000000  00000+0  00000-0 0  9990
2 10013  45.0000  36.0000 0000000   0.0000 126.0000 14.42576008    12
CTC2_L_00123004-03
1 10014U 24696KC  26075.70041667  .00000000  00000+0  00000-0 0  9993
2 10014  45.0000  36.0000 0000000   0.0000 216.0000 14.42576008    13
CTC2_L_00123004-04
1 10015U 26534HU  26075.70041667  .00000000  00000+0  00000-0 0  9997
2 10015  45.0000  36.0000 0000000   0.0000 306.0000 14.42576008    14
CTC2_L_00123005-01
1 10016U 22162CB  26075.70041667  .00000000  00000+0  00000-0 0  9991
2 10016  45.0000  48.0000 0000000   0.0000  48.0000 14.42576008    11
CTC2_L_00123005-02
1 10017U 25573VG  26075.70041667  .00000000  00000+0  00000-0 0  9991
2 10017  45.0000  48.0000 0000000   0.0000 138.0000 14.42576008    12
CTC2_L_00123005-03
1 10018U 24456HU  26075.70041667  .00000000  00000+0  00000-0 0  9991
2 10018  45.0000  48.0000 0000000   0.0000 228.0000 14.42576008    13
CTC2_L_00123005-04
1 10019U 26342YV  26075.70041667  .00000000  00000+0  00000-0 0  9998
2 10019  45.0000  48.0000 0000000   0.0000 318.0000 14.42576008    14
CTC2_L_00123006-01
1 10020U 25906XV  26075.70041667  .00000000  00000+0  00000-0 0  9995
2 10020  45.0000  60.0000 0000000   0.0000  60.0000 14.42576008    14
CTC2_L_00123006-02
1 10021U 23600BI  26075.70041667  .00000000  00000+0  00000-0 0  9995
2 10021  45.0000  60.0000 0000000   0.0000 150.0000 14.42576008    15
CTC2_L_00123006-03
1 10022U 22745EE  26075.70041667  .00000000  00000+0  00000-0 0  9995
2 10022  45.0000  60.0000 0000000   0.0000 240.0000 14.42576008    16
CTC2_L_00123006-04
1 10023U 25718KQ  26075.70041667  .00000000  00000+0  00000-0 0  9999
2 10023  45.0000  60.0000 0000000   0.0000 330.0000 14.42576008    17
CTC2_L_00123007-01
1 10024U 26747ZQ  26075.70041667  .00000000  00000+0  00000-0 0  9993
2 10024  45.0000  72.0000 0000000   0.0000  72.0000 14.42576008    14
CTC2_L_00123007-02
1 10025U 23308CL  26075.70041667  .00000000  00000+0  00000-0 0  9994
2 10025  45.0000  72.0000 0000000   0.0000 162.0000 14.42576008    15
CTC2_L_00123007-03
1 10026U 24208ZN  26075.70041667  .00000000  00000+0  00000-0 0  9995
2 10026  45.0000  72.0000 0000000   0.0000 252.0000 14.42576008    16
CTC2_L_00123007-04
1 10027U 25217ZL  26075.70041667  .00000000  00000+0  00000-0 0  9997
2 10027  45.0000  72.0000 0000000   0.0000 342.0000 14.42576008    17
CTC2_L_00123008-01
1 10028U 23280NJ  26075.70041667  .00000000  00000+0  00000-0 0  9996
2 10028  45.0000  84.0000 0000000   0.0000  84.0000 14.42576008    14
CTC2_L_00123008-02
1 10029U 22347D   26075.70041667  .00000000  00000+0  00000-0 0  9990
2 10029  45.0000  84.0000 0000000   0.0000 174.0000 14.42576008    15
CTC2_L_00123008-03
1 10030U 25144UT  26075.70041667  .00000000  00000+0  00000-0 0  9990
2 10030  45.0000  84.0000 0000000   0.0000 264.0000 14.42576008    17
CTC2_L_00123008-04
1 10031U 25623IE  26075.70041667  .00000000  00000+0  00000-0 0  9993
2 10031  45.0000  84.0000 0000000   0.0000 354.0000 14.42576008    18
CTC2_L_00123009-01
1 10032U 25618GA  26075.70041667  .00000000  00000+0  00000-0 0  9998
2 10032  45.0000  96.0000 0000000   0.0000  96.0000 14.42576008    15
CTC2_L_00123009-02
1 10033U 22409VP  26075.70041667  .00000000  00000+0  00000-0 0  9994
2 10033  45.0000  96.0000 0000000   0.0000 186.0000 14.42576008    16
CTC2_L_00123009-03
1 10034U 22292ZG  26075.70041667  .00000000  00000+0  00000-0 0  9995
2 10034  45.0000  96.0000 0000000   0.0000 276.0000 14.42576008    17
CTC2_L_00123009-04
1 10035U 26864XX  26075.70041667  .00000000  00000+0  00000-0 0  9995
2 10035  45.0000  96.0000 0000000   0.0000   6.0000 14.42576008    19
CTC2_L_00123010-01
1 10036U 23662KY  26075.70041667  .00000000  00000+0  00000-0 0  9999
2 10036  45.0000 108.0000 0000000   0.0000 108.0000 14.42576008    17
CTC2_L_00123010-02
1 10037U 26309HV  26075.70041667  .00000000  00000+0  00000-0 0  9991
2 10037  45.0000 108.0000 0000000   0.0000 198.0000 14.42576008    17
CTC2_L_00123010-03
1 10038U 22116NJ  26075.70041667  .00000000  00000+0  00000-0 0  9994
2 10038  45.0000 108.0000 0000000   0.0000 288.0000 14.42576008    18
CTC2_L_00123010-04
1 10039U 22189SV  26075.70041667  .00000000  00000+0  00000-0 0  9995
2 10039  45.0000 108.0000 0000000   0.0000  18.0000 14.42576008    10
CTC2_L_00123011-01
1 10040U 24497ER  26075.70041667  .00000000  00000+0  00000-0 0  9991
2 10040  45.0000 120.0000 0000000   0.0000 120.0000 14.42576008    10
CTC2_L_00123011-02
1 10041U 26754ZC  26075.70041667  .00000000  00000+0  00000-0 0  9990
2 10041  45.0000 120.0000 0000000   0.0000 210.0000 14.42576008    11
CTC2_L_00123011-03
1 10042U 25499IW  26075.70041667  .00000000  00000+0  00000-0 0  9996
2 10042  45.0000 120.0000 0000000   0.0000 300.0000 14.42576008    12
CTC2_L_00123011-04
1 10043U 22573AH  26075.70041667  .00000000  00000+0  00000-0 0  9997
2 10043  45.0000 120.0000 0000000   0.0000  30.0000 14.42576008    13
CTC2_L_00123012-01
1 10044U 24788KX  26075.70041667  .00000000  00000+0  00000-0 0  9998
2 10044  45.0000 132.0000 0000000   0.0000 132.0000 14.42576008    10
CTC2_L_00123012-02
1 10045U 24842TB  26075.70041667  .00000000  00000+0  00000-0 0  9990
2 10045  45.0000 132.0000 0000000   0.0000 222.0000 14.42576008    11
CTC2_L_00123012-03
1 10046U 22297HF  26075.70041667  .00000000  00000+0  00000-0 0  9993
2 10046  45.0000 132.0000 0000000   0.0000 312.0000 14.42576008    12
CTC2_L_00123012-04
1 10047U 22988OJ  26075.70041667  .00000000  00000+0  00000-0 0  9991
2 10047  45.0000 132.0000 0000000   0.0000  42.0000 14.42576008    13
CTC2_L_00123013-01
1 10048U 22931GC  26075.70041667  .00000000  00000+0  00000-0 0  9990
2 10048  45.0000 144.0000 0000000   0.0000 144.0000 14.42576008    10
CTC2_L_00123013-02
1 10049U 25817OL  26075.70041667  .00000000  00000+0  00000-0 0  9997
2 10049  45.0000 144.0000 0000000   0.0000 234.0000 14.42576008    11
CTC2_L_00123013-03
1 10050U 26987UG  26075.70041667  .00000000  00000+0  00000-0 0  9998
2 10050  45.0000 144.0000 0000000   0.0000 324.0000 14.42576008    13
CTC2_L_00123013-04
1 10051U 25210RY  26075.70041667  .00000000  00000+0  00000-0 0  9997
2 10051  45.0000 144.0000 0000000   0.0000  54.0000 14.42576008    14
CTC2_L_00123014-01
1 10052U 26720HZ  26075.70041667  .00000000  00000+0  00000-0 0  9995
2 10052  45.0000 156.0000 0000000   0.0000 156.0000 14.42576008    11
CTC2_L_00123014-02
1 10053U 23849HU  26075.70041667  .00000000  00000+0  00000-0 0  9995
2 10053  45.0000 156.0000 0000000   0.0000 246.0000 14.42576008    12
CTC2_L_00123014-03
1 10054U 24224FT  26075.70041667  .00000000  00000+0  00000-0 0  9994
2 10054  45.0000 156.0000 0000000   0.0000 336.0000 14.42576008    13
CTC2_L_00123014-04
1 10055U 25205AC  26075.70041667  .00000000  00000+0  00000-0 0  9995
2 10055  45.0000 156.0000 0000000   0.0000  66.0000 14.42576008    14
CTC2_L_00123015-01
1 10056U 25024FG  26075.70041667  .00000000  00000+0  00000-0 0  9995
2 10056  45.0000 168.0000 0000000   0.0000 168.0000 14.42576008    11
CTC2_L_00123015-02
1 10057U 24829AX  26075.70041667  .00000000  00000+0  00000-0 0  9998
2 10057  45.0000 168.0000 0000000   0.0000 258.0000 14.42576008    12
CTC2_L_00123015-03
1 10058U 23356VI  26075.70041667  .00000000  00000+0  00000-0 0  9993
2 10058  45.0000 168.0000 0000000   0.0000 348.0000 14.42576008    13
CTC2_L_00123015-04
1 10059U 23352Z   26075.70041667  .00000000  00000+0  00000-0 0  9990
2 10059  45.0000 168.0000 0000000   0.0000  78.0000 14.42576008    14
CTC2_L_00123016-01
1 10060U 26735EJ  26075.70041667  .00000000  00000+0  00000-0 0  9990
2 10060  45.0000 180.0000 0000000   0.0000 180.0000 14.42576008    14
CTC2_L_00123016-02
1 10061U 25389KE  26075.70041667  .00000000  00000+0  00000-0 0  9995
2 10061  45.0000 180.0000 0000000   0.0000 270.0000 14.42576008    15
